CZ-4B R/B               
1 28059U 03049C   19107.79761812  .00000007  00000-0  13460-4 0  9994
2 28059  98.4989  14.3342 0050261   4.1926 355.9680 14.52558596820877
CZ-2C R/B               
1 28222U 04012C   19107.88281035  .00000470  00000-0  32226-4 0  9996
2 28222  97.6196  66.1000 0048777  51.7614   6.1917 15.10033816821616
SL-16 R/B               
1 28353U 04021B   19107.41501522  .00000333  00000-0  19957-3 0  9999
2 28353  70.9983 114.9447 0007135 263.5936  96.4374 14.14216061766760
CZ-2C R/B               
1 28480U 04046B   19107.79648712 -.00000021  00000-0  69324-5 0  9991
2 28480  98.1367 169.3566 0142847  47.7259  66.8355 14.25696292749621
ARIANE 5 R/B            
1 28499U 04049H   19107.83899409  .00000038  00000-0  12135-4 0  9994
2 28499  98.0483 203.4520 0091588 211.4181 261.9331 14.79958014772998
CZ-2D R/B               
1 28738U 05024B   19107.95980761  .00000469  00000-0  31134-4 0  9997
2 28738  97.4211 138.7145 0011192 209.6231 150.4367 15.11769050756964
SUZAKU (ASTRO-EII)      
1 28773U 05025A   19107.85764887  .00000829  00000-0  36545-4 0  9996
2 28773  31.3825 269.3092 0004702 238.0720 121.9470 15.17010308759097
ALOS (DAICHI)           
1 28931U 06002A   19107.94882662  .00000131  00000-0  34400-4 0  9994
2 28931  97.8206 110.4537 0002011  46.6825 313.4574 14.62597761705358
H-2A R/B                
1 28932U 06002B   19107.87109697  .00000144  00000-0  19829-4 0  9999
2 28932  98.2746  70.2346 0087699 277.6867 134.1301 14.91949333717538
AKARI (ASTRO-F)         
1 28939U 06005A   19107.82349110  .00003289  00000-0  93608-4 0  9990
2 28939  98.1915  30.1571 0098533  16.3004 344.1366 15.32259328715522
RESURS-DK 1             
1 29228U 06021A   19107.73397120  .00000044  00000-0  10637-4 0  9991
2 29228  69.9360 194.2160 0003773 353.6232   6.4880 15.02425727708652
GENESIS 1               
1 29252U 06029A   19107.88054861  .00000612  00000-0  39698-4 0  9993
2 29252  64.5035 256.5781 0052254 248.2257 111.3301 15.17657938703357
CZ-4B R/B               
1 29507U 06046C   19107.96607661 -.00000299  00000-0 -18216-4 0  9992
2 29507  97.7643 125.7961 0050917 153.6408 206.7423 15.00385879681411
CZ-2C R/B               
1 31114U 07010B   19107.65564141 -.00000029  00000-0  49681-5 0  9993
2 31114  98.3206 342.8271 0060878  70.5174 290.2567 14.19291816622463
COSMO-SKYMED 1          
1 31598U 07023A   19107.81106236  .00000333  00000-0  48370-4 0  9998
2 31598  97.8905 292.0583 0001599  89.4345 270.7076 14.82157073641639
GENESIS 2               
1 31789U 07028A   19107.92807416  .00000487  00000-0  34551-4 0  9991
2 31789  64.5035 296.9385 0046111 294.2859  65.3450 15.16883497650474
COSMOS 2428             
1 31792U 07029A   19107.93825948 -.00000332  00000-0 -15394-3 0  9991
2 31792  70.9506  87.9449 0009877 341.1329  18.9425 14.12512378608553
SL-16 R/B               
1 31793U 07029B   19107.96759880 -.00000168  00000-0 -62608-4 0  9994
2 31793  70.9769  62.2418 0002735 264.1117 158.8874 14.14417300609387
KORONAS-FOTON           
1 33504U 09003A   19107.90514602  .00000740  00000-0  37416-4 0  9998
2 33504  82.4395 287.1496 0018101 318.1668  41.8180 15.15380120562785
H-2A R/B                
1 38341U 12025E   19107.89750430  .00000126  00000-0  22220-4 0  9994
2 38341  98.4406 231.8995 0056165 162.1944 198.1253 14.83872427374109
CUSAT 2 & FALCON 9 R/B  
1 39271U 13055G   19107.79006011  .00006674  00000-0  16363-3 0  9993
2 39271  80.9711   4.6043 0603824   9.8342 351.4052 14.44415494289061
SL-4 R/B                
1 39679U 14021B   19107.88779305 -.00000092  00000-0  13827-4 0  9994
2 39679  51.6172 286.3993 0172294 267.9865  90.1366 15.06041758274731
ALOS-2                  
1 39766U 14029A   19107.88309603 -.00000487  00000-0 -58318-4 0  9992
2 39766  97.9188 205.5985 0001479  81.7798 278.3534 14.79469062264620
SL-27 R/B               
1 40354U 14084B   19107.67844750  .00000788  00000-0  20847-4 0  9990
2 40354  74.7390 190.5820 0039313 236.5573 123.1878 15.39617332242449
ASTRO-H (HITOMI)        
1 41337U 16012A   19107.65522075  .00000243  00000-0  12780-4 0  9999
2 41337  31.0047 195.6016 0012394 174.3064 185.7713 14.98569526173421
TIANGONG-2              
1 41765U 16057A   19107.86712324  .00004474  00000-0  55671-4 0  9990
2 41765  42.7847 326.6739 0008017 218.0412 207.2673 15.61261035147613
SHENZHOU-11 MODULE      
1 41868U 16061G   19107.82860884  .00015722  00000-0  89368-4 0  9998
2 41868  42.7928 257.5078 0006606 328.6049 150.2435 15.78722507138326
SAOCOM 1A               
1 43641U 18076A   19107.75177287 -.00000137  00000-0 -10678-4 0  9991
2 43641  97.8913 294.9810 0001609  86.7225 273.4183 14.82152775 28398
